[
    {
      "OBJECT_NAME": "ONEWEB-0568",
      "OBJECT_ID": "2023-043S",
      "EPOCH": "2026-03-26T22:25:16.093056",
      "MEAN_MOTION": 13.16592726,
      "ECCENTRICITY": 0.00014693,
      "INCLINATION": 87.9029,
      "RA_OF_ASC_NODE": 245.1218,
      "ARG_OF_PERICENTER": 93.9142,
      "MEAN_ANOMALY": 266.2157,
      "EPHEMERIS_TYPE": 0,
      "CLASSIFICATION_TYPE": "U",
      "NORAD_CAT_ID": 56062,
      "ELEMENT_SET_NO": 999,
      "REV_AT_EPOCH": 14815,
      "BSTAR": -0.000089768512,
      "MEAN_MOTION_DOT": -2.1e-7,
      "MEAN_MOTION_DDOT": 0
    },
    {
      "OBJECT_NAME": "ONEWEB-0574",
      "OBJECT_ID": "2023-043T",
      "EPOCH": "2026-03-26T21:50:35.959488",
      "MEAN_MOTION": 13.21826931,
      "ECCENTRICITY": 0.00015878,
      "INCLINATION": 87.9182,
      "RA_OF_ASC_NODE": 260.3648,
      "ARG_OF_PERICENTER": 100.6536,
      "MEAN_ANOMALY": 259.4777,
      "EPHEMERIS_TYPE": 0,
      "CLASSIFICATION_TYPE": "U",
      "NORAD_CAT_ID": 56063,
      "ELEMENT_SET_NO": 999,
      "REV_AT_EPOCH": 14740,
      "BSTAR": 0.000067445152,
      "MEAN_MOTION_DOT": 4.1e-7,
      "MEAN_MOTION_DDOT": 0
    },
    {
      "OBJECT_NAME": "ONEWEB-0575",
      "OBJECT_ID": "2023-043U",
      "EPOCH": "2026-03-26T22:16:09.128352",
      "MEAN_MOTION": 13.16595506,
      "ECCENTRICITY": 0.0001317,
      "INCLINATION": 87.9024,
      "RA_OF_ASC_NODE": 245.1203,
      "ARG_OF_PERICENTER": 103.6523,
      "MEAN_ANOMALY": 256.4755,
      "EPHEMERIS_TYPE": 0,
      "CLASSIFICATION_TYPE": "U",
      "NORAD_CAT_ID": 56064,
      "ELEMENT_SET_NO": 999,
      "REV_AT_EPOCH": 14814,
      "BSTAR": -0.00070958434,
      "MEAN_MOTION_DOT": -0.00000258,
      "MEAN_MOTION_DDOT": 0
    },
    {
      "OBJECT_NAME": "ONEWEB-0576",
      "OBJECT_ID": "2023-043V",
      "EPOCH": "2026-03-26T21:48:48.204864",
      "MEAN_MOTION": 13.1659501,
      "ECCENTRICITY": 0.00014766,
      "INCLINATION": 87.9033,
      "RA_OF_ASC_NODE": 245.1285,
      "ARG_OF_PERICENTER": 103.3601,
      "MEAN_ANOMALY": 256.7695,
      "EPHEMERIS_TYPE": 0,
      "CLASSIFICATION_TYPE": "U",
      "NORAD_CAT_ID": 56065,
      "ELEMENT_SET_NO": 999,
      "REV_AT_EPOCH": 14813,
      "BSTAR": 0.000009569522,
      "MEAN_MOTION_DOT": 1.7e-7,
      "MEAN_MOTION_DDOT": 0
    },
    {
      "OBJECT_NAME": "ONEWEB-0577",
      "OBJECT_ID": "2023-043W",
      "EPOCH": "2026-03-26T21:57:53.565120",
      "MEAN_MOTION": 13.16603662,
      "ECCENTRICITY": 0.00013659,
      "INCLINATION": 87.9037,
      "RA_OF_ASC_NODE": 245.1259,
      "ARG_OF_PERICENTER": 126.0569,
      "MEAN_ANOMALY": 234.0689,
      "EPHEMERIS_TYPE": 0,
      "CLASSIFICATION_TYPE": "U",
      "NORAD_CAT_ID": 56066,
      "ELEMENT_SET_NO": 999,
      "REV_AT_EPOCH": 14816,
      "BSTAR": 0.0015282269,
      "MEAN_MOTION_DOT": 0.00000597,
      "MEAN_MOTION_DDOT": 0
    },
    {
      "OBJECT_NAME": "ONEWEB-0578",
      "OBJECT_ID": "2023-043X",
      "EPOCH": "2026-03-26T23:20:38.804640",
      "MEAN_MOTION": 13.21825272,
      "ECCENTRICITY": 0.00015276,
      "INCLINATION": 87.9172,
      "RA_OF_ASC_NODE": 260.3569,
      "ARG_OF_PERICENTER": 88.6921,
      "MEAN_ANOMALY": 271.4388,
      "EPHEMERIS_TYPE": 0,
      "CLASSIFICATION_TYPE": "U",
      "NORAD_CAT_ID": 56067,
      "ELEMENT_SET_NO": 999,
      "REV_AT_EPOCH": 14737,
      "BSTAR": 0.00010086632,
      "MEAN_MOTION_DOT": 5.5e-7,
      "MEAN_MOTION_DDOT": 0
    },
    {
      "OBJECT_NAME": "ONEWEB-0579",
      "OBJECT_ID": "2023-043Y",
      "EPOCH": "2026-03-26T23:06:24.840000",
      "MEAN_MOTION": 13.21824117,
      "ECCENTRICITY": 0.00019492,
      "INCLINATION": 87.9177,
      "RA_OF_ASC_NODE": 260.3505,
      "ARG_OF_PERICENTER": 99.8966,
      "MEAN_ANOMALY": 260.2388,
      "EPHEMERIS_TYPE": 0,
      "CLASSIFICATION_TYPE": "U",
      "NORAD_CAT_ID": 56068,
      "ELEMENT_SET_NO": 999,
      "REV_AT_EPOCH": 14738,
      "BSTAR": 0.00010682464,
      "MEAN_MOTION_DOT": 5.7e-7,
      "MEAN_MOTION_DDOT": 0
    },
    {
      "OBJECT_NAME": "ONEWEB-0581",
      "OBJECT_ID": "2023-043Z",
      "EPOCH": "2026-03-26T22:07:01.896672",
      "MEAN_MOTION": 13.16595325,
      "ECCENTRICITY": 0.00014687,
      "INCLINATION": 87.9033,
      "RA_OF_ASC_NODE": 245.1362,
      "ARG_OF_PERICENTER": 118.7679,
      "MEAN_ANOMALY": 241.36,
      "EPHEMERIS_TYPE": 0,
      "CLASSIFICATION_TYPE": "U",
      "NORAD_CAT_ID": 56069,
      "ELEMENT_SET_NO": 999,
      "REV_AT_EPOCH": 14813,
      "BSTAR": -0.00017688749,
      "MEAN_MOTION_DOT": -5.5e-7,
      "MEAN_MOTION_DDOT": 0
    },
    {
      "OBJECT_NAME": "ONEWEB-0609",
      "OBJECT_ID": "2023-043AA",
      "EPOCH": "2026-03-26T23:10:38.548416",
      "MEAN_MOTION": 13.1554886,
      "ECCENTRICITY": 0.00017459,
      "INCLINATION": 87.8922,
      "RA_OF_ASC_NODE": 275.6287,
      "ARG_OF_PERICENTER": 89.3701,
      "MEAN_ANOMALY": 270.763,
      "EPHEMERIS_TYPE": 0,
      "CLASSIFICATION_TYPE": "U",
      "NORAD_CAT_ID": 56070,
      "ELEMENT_SET_NO": 999,
      "REV_AT_EPOCH": 14562,
      "BSTAR": 0.00034935142,
      "MEAN_MOTION_DOT": 0.00000144,
      "MEAN_MOTION_DDOT": 0
    },
    {
      "OBJECT_NAME": "ONEWEB-0613",
      "OBJECT_ID": "2023-043AB",
      "EPOCH": "2026-03-26T23:03:53.649504",
      "MEAN_MOTION": 13.15548862,
      "ECCENTRICITY": 0.00019648,
      "INCLINATION": 87.8921,
      "RA_OF_ASC_NODE": 275.6403,
      "ARG_OF_PERICENTER": 94.1507,
      "MEAN_ANOMALY": 265.9848,
      "EPHEMERIS_TYPE": 0,
      "CLASSIFICATION_TYPE": "U",
      "NORAD_CAT_ID": 56071,
      "ELEMENT_SET_NO": 999,
      "REV_AT_EPOCH": 14562,
      "BSTAR": 0.00028055377,
      "MEAN_MOTION_DOT": 0.00000118,
      "MEAN_MOTION_DDOT": 0
    },
    {
      "OBJECT_NAME": "ONEWEB-0630",
      "OBJECT_ID": "2023-043AC",
      "EPOCH": "2026-03-26T22:57:02.578176",
      "MEAN_MOTION": 13.15549022,
      "ECCENTRICITY": 0.00019482,
      "INCLINATION": 87.8922,
      "RA_OF_ASC_NODE": 275.6111,
      "ARG_OF_PERICENTER": 95.4835,
      "MEAN_ANOMALY": 264.6518,
      "EPHEMERIS_TYPE": 0,
      "CLASSIFICATION_TYPE": "U",
      "NORAD_CAT_ID": 56072,
      "ELEMENT_SET_NO": 999,
      "REV_AT_EPOCH": 14561,
      "BSTAR": 0.00014017298,
      "MEAN_MOTION_DOT": 6.6e-7,
      "MEAN_MOTION_DDOT": 0
    },
    {
      "OBJECT_NAME": "ONEWEB-0632",
      "OBJECT_ID": "2023-043AD",
      "EPOCH": "2026-03-26T22:50:12.299136",
      "MEAN_MOTION": 13.15548638,
      "ECCENTRICITY": 0.00016328,
      "INCLINATION": 87.8923,
      "RA_OF_ASC_NODE": 275.6299,
      "ARG_OF_PERICENTER": 98.959,
      "MEAN_ANOMALY": 261.1725,
      "EPHEMERIS_TYPE": 0,
      "CLASSIFICATION_TYPE": "U",
      "NORAD_CAT_ID": 56073,
      "ELEMENT_SET_NO": 999,
      "REV_AT_EPOCH": 14561,
      "BSTAR": -0.000036515011,
      "MEAN_MOTION_DOT": -1e-8,
      "MEAN_MOTION_DDOT": 0
    },
    {
      "OBJECT_NAME": "ONEWEB-0633",
      "OBJECT_ID": "2023-043AE",
      "EPOCH": "2026-03-26T22:41:04.257888",
      "MEAN_MOTION": 13.15549132,
      "ECCENTRICITY": 0.00021281,
      "INCLINATION": 87.8934,
      "RA_OF_ASC_NODE": 275.6002,
      "ARG_OF_PERICENTER": 90.1465,
      "MEAN_ANOMALY": 269.9909,
      "EPHEMERIS_TYPE": 0,
      "CLASSIFICATION_TYPE": "U",
      "NORAD_CAT_ID": 56074,
      "ELEMENT_SET_NO": 999,
      "REV_AT_EPOCH": 14559,
      "BSTAR": -0.00016101096,
      "MEAN_MOTION_DOT": -4.8e-7,
      "MEAN_MOTION_DDOT": 0
    },
    {
      "OBJECT_NAME": "ONEWEB-0634",
      "OBJECT_ID": "2023-043AF",
      "EPOCH": "2026-03-26T22:20:32.285472",
      "MEAN_MOTION": 13.15550306,
      "ECCENTRICITY": 0.00016194,
      "INCLINATION": 87.8929,
      "RA_OF_ASC_NODE": 275.6499,
      "ARG_OF_PERICENTER": 81.1822,
      "MEAN_ANOMALY": 278.9492,
      "EPHEMERIS_TYPE": 0,
      "CLASSIFICATION_TYPE": "U",
      "NORAD_CAT_ID": 56075,
      "ELEMENT_SET_NO": 999,
      "REV_AT_EPOCH": 14558,
      "BSTAR": -0.00017971237,
      "MEAN_MOTION_DOT": -5.5e-7,
      "MEAN_MOTION_DDOT": 0
    },
    {
      "OBJECT_NAME": "ONEWEB-0635",
      "OBJECT_ID": "2023-043AG",
      "EPOCH": "2026-03-26T22:13:40.877184",
      "MEAN_MOTION": 13.15549354,
      "ECCENTRICITY": 0.00015394,
      "INCLINATION": 87.8935,
      "RA_OF_ASC_NODE": 275.6063,
      "ARG_OF_PERICENTER": 101.6965,
      "MEAN_ANOMALY": 258.4338,
      "EPHEMERIS_TYPE": 0,
      "CLASSIFICATION_TYPE": "U",
      "NORAD_CAT_ID": 56076,
      "ELEMENT_SET_NO": 999,
      "REV_AT_EPOCH": 14561,
      "BSTAR": -0.00024873184,
      "MEAN_MOTION_DOT": -8.1e-7,
      "MEAN_MOTION_DDOT": 0
    },
    {
      "OBJECT_NAME": "ONEWEB-0636",
      "OBJECT_ID": "2023-043AH",
      "EPOCH": "2026-03-26T22:02:16.386144",
      "MEAN_MOTION": 13.15549606,
      "ECCENTRICITY": 0.00016496,
      "INCLINATION": 87.8948,
      "RA_OF_ASC_NODE": 275.618,
      "ARG_OF_PERICENTER": 102.2762,
      "MEAN_ANOMALY": 257.8553,
      "EPHEMERIS_TYPE": 0,
      "CLASSIFICATION_TYPE": "U",
      "NORAD_CAT_ID": 56077,
      "ELEMENT_SET_NO": 999,
      "REV_AT_EPOCH": 14559,
      "BSTAR": 0.000026691744,
      "MEAN_MOTION_DOT": 2.3e-7,
      "MEAN_MOTION_DDOT": 0
    },
    {
      "OBJECT_NAME": "ONEWEB-0637",
      "OBJECT_ID": "2023-043AJ",
      "EPOCH": "2026-03-26T12:45:32.126976",
      "MEAN_MOTION": 13.15549772,
      "ECCENTRICITY": 0.00013611,
      "INCLINATION": 87.8928,
      "RA_OF_ASC_NODE": 275.7159,
      "ARG_OF_PERICENTER": 89.6986,
      "MEAN_ANOMALY": 270.4301,
      "EPHEMERIS_TYPE": 0,
      "CLASSIFICATION_TYPE": "U",
      "NORAD_CAT_ID": 56078,
      "ELEMENT_SET_NO": 999,
      "REV_AT_EPOCH": 14556,
      "BSTAR": 0.000055430602,
      "MEAN_MOTION_DOT": 3.4e-7,
      "MEAN_MOTION_DDOT": 0
    }
  ]
